[
    {
        "Altitude(m)": 562121.559547864,
        "Argument of Periapsis(deg)": 0.006622991110713501,
        "Eccentricity": 0.0,
        "Inclination(deg)": 53.0,
        "Latitude(deg)": -29.05547519666068,
        "Longitude(deg)": 39.62161982498457,
        "Mean Anomaly(deg)": -37.1811071324224,
        "RAAN(deg)": 164.990143368528,
        "Satellite Name": "Starlink Shell 1 745",
        "Satellite Number": 745,
        "Semi-Major Axis(m)": 6931778.249405717,
        "Time(s)": 190
    },
    {
        "Altitude(m)": 561946.979987997,
        "Argument of Periapsis(deg)": 0.0069715695902247375,
        "Eccentricity": 0.0,
        "Inclination(deg)": 53.0,
        "Latitude(deg)": -28.598237314178146,
        "Longitude(deg)": 40.069427056617336,
        "Mean Anomaly(deg)": -36.55427592886563,
        "RAAN(deg)": 164.98962459845052,
        "Satellite Name": "Starlink Shell 1 745",
        "Satellite Number": 745,
        "Semi-Major Axis(m)": 6931778.249405717,
        "Time(s)": 200
    },
    {
        "Altitude(m)": 561772.7654211525,
        "Argument of Periapsis(deg)": 0.007320148069735974,
        "Eccentricity": 0.0,
        "Inclination(deg)": 53.0,
        "Latitude(deg)": -28.139206340485604,
        "Longitude(deg)": 40.51302898677988,
        "Mean Anomaly(deg)": -35.92744472530898,
        "RAAN(deg)": 164.98910582837306,
        "Satellite Name": "Starlink Shell 1 745",
        "Satellite Number": 745,
        "Semi-Major Axis(m)": 6931778.249405717,
        "Time(s)": 210
    },
    {
        "Altitude(m)": 561598.9804686926,
        "Argument of Periapsis(deg)": 0.007668726549247212,
        "Eccentricity": 0.0,
        "Inclination(deg)": 53.0,
        "Latitude(deg)": -27.6784298788786,
        "Longitude(deg)": 40.9525251264793,
        "Mean Anomaly(deg)": -35.30061352175221,
        "RAAN(deg)": 164.98858705829562,
        "Satellite Name": "Starlink Shell 1 745",
        "Satellite Number": 745,
        "Semi-Major Axis(m)": 6931778.249405717,
        "Time(s)": 220
    },
    {
        "Altitude(m)": 561425.6894133976,
        "Argument of Periapsis(deg)": 0.00801730502875845,
        "Eccentricity": 0.0,
        "Inclination(deg)": 53.0,
        "Latitude(deg)": -27.215954507468513,
        "Longitude(deg)": 41.38801368652715,
        "Mean Anomaly(deg)": -34.67378231819554,
        "RAAN(deg)": 164.9880682882181,
        "Satellite Name": "Starlink Shell 1 745",
        "Satellite Number": 745,
        "Semi-Major Axis(m)": 6931778.249405717,
        "Time(s)": 230
    },
    {
        "Altitude(m)": 561252.956170621,
        "Argument of Periapsis(deg)": 0.008365883508269684,
        "Eccentricity": 0.0,
        "Inclination(deg)": 53.0,
        "Latitude(deg)": -26.751825808573702,
        "Longitude(deg)": 41.81959208266014,
        "Mean Anomaly(deg)": -34.046951114638794,
        "RAAN(deg)": 164.98754951814064,
        "Satellite Name": "Starlink Shell 1 745",
        "Satellite Number": 745,
        "Semi-Major Axis(m)": 6931778.249405717,
        "Time(s)": 240
    },
    {
        "Altitude(m)": 561080.8442596331,
        "Argument of Periapsis(deg)": 0.008714461987780921,
        "Eccentricity": 0.0,
        "Inclination(deg)": 53.0,
        "Latitude(deg)": -26.28608839764481,
        "Longitude(deg)": 42.24735593046634,
        "Mean Anomaly(deg)": -33.42011991108205,
        "RAAN(deg)": 164.98703074806318,
        "Satellite Name": "Starlink Shell 1 745",
        "Satellite Number": 745,
        "Semi-Major Axis(m)": 6931778.249405717,
        "Time(s)": 250
    },
    {
        "Altitude(m)": 560909.4167751172,
        "Argument of Periapsis(deg)": 0.009063040467292158,
        "Eccentricity": 0.0,
        "Inclination(deg)": 53.0,
        "Latitude(deg)": -25.818785951703937,
        "Longitude(deg)": 42.67139955564457,
        "Mean Anomaly(deg)": -32.79328870752538,
        "RAAN(deg)": 164.98651197798569,
        "Satellite Name": "Starlink Shell 1 745",
        "Satellite Number": 745,
        "Semi-Major Axis(m)": 6931778.249405717,
        "Time(s)": 260
    },
    {
        "Altitude(m)": 560738.7363588711,
        "Argument of Periapsis(deg)": 0.009411618946803396,
        "Eccentricity": 0.0,
        "Inclination(deg)": 53.0,
        "Latitude(deg)": -25.349961237288362,
        "Longitude(deg)": 43.091816506515656,
        "Mean Anomaly(deg)": -32.1664575039686,
        "RAAN(deg)": 164.98599320790822,
        "Satellite Name": "Starlink Shell 1 745",
        "Satellite Number": 745,
        "Semi-Major Axis(m)": 6931778.249405717,
        "Time(s)": 270
    },
    {
        "Altitude(m)": 560568.8651717243,
        "Argument of Periapsis(deg)": 0.009760197426314633,
        "Eccentricity": 0.0,
        "Inclination(deg)": 53.0,
        "Latitude(deg)": -24.87965613789244,
        "Longitude(deg)": 43.508698555720635,
        "Mean Anomaly(deg)": -31.539626300411857,
        "RAAN(deg)": 164.98547443783076,
        "Satellite Name": "Starlink Shell 1 745",
        "Satellite Number": 745,
        "Semi-Major Axis(m)": 6931778.249405717,
        "Time(s)": 280
    },
    {
        "Altitude(m)": 560399.8648656488,
        "Argument of Periapsis(deg)": 0.01010877590582587,
        "Eccentricity": 0.0,
        "Inclination(deg)": 53.0,
        "Latitude(deg)": -24.40791168089541,
        "Longitude(deg)": 43.922136216670474,
        "Mean Anomaly(deg)": -30.912795096855188,
        "RAAN(deg)": 164.98495566775327,
        "Satellite Name": "Starlink Shell 1 745",
        "Satellite Number": 745,
        "Semi-Major Axis(m)": 6931778.249405717,
        "Time(s)": 290
    },
    {
        "Altitude(m)": 560231.7965561453,
        "Argument of Periapsis(deg)": 0.010457354385337106,
        "Eccentricity": 0.0,
        "Inclination(deg)": 53.0,
        "Latitude(deg)": -23.934768063973344,
        "Longitude(deg)": 44.33221926170702,
        "Mean Anomaly(deg)": -30.28596389329844,
        "RAAN(deg)": 164.9844368976758,
        "Satellite Name": "Starlink Shell 1 745",
        "Satellite Number": 745,
        "Semi-Major Axis(m)": 6931778.249405717,
        "Time(s)": 300
    },
    {
        "Altitude(m)": 560064.7207948281,
        "Argument of Periapsis(deg)": 0.010805932864848343,
        "Eccentricity": 0.0,
        "Inclination(deg)": 53.0,
        "Latitude(deg)": -23.460264680995387,
        "Longitude(deg)": 44.739035728944486,
        "Mean Anomaly(deg)": -29.659132689741796,
        "RAAN(deg)": 164.98391812759834,
        "Satellite Name": "Starlink Shell 1 745",
        "Satellite Number": 745,
        "Semi-Major Axis(m)": 6931778.249405717,
        "Time(s)": 310
    },
    {
        "Altitude(m)": 559898.6975423236,
        "Argument of Periapsis(deg)": 0.01115451134435958,
        "Eccentricity": 0.0,
        "Inclination(deg)": 53.0,
        "Latitude(deg)": -22.984440147397528,
        "Longitude(deg)": 45.14267244339327,
        "Mean Anomaly(deg)": -29.032301486185,
        "RAAN(deg)": 164.98339935752085,
        "Satellite Name": "Starlink Shell 1 745",
        "Satellite Number": 745,
        "Semi-Major Axis(m)": 6931778.249405717,
        "Time(s)": 320
    },
    {
        "Altitude(m)": 559733.7861414109,
        "Argument of Periapsis(deg)": 0.011503089823870818,
        "Eccentricity": 0.0,
        "Inclination(deg)": 53.0,
        "Latitude(deg)": -22.507332325039265,
        "Longitude(deg)": 45.543215539354755,
        "Mean Anomaly(deg)": -28.405470282628357,
        "RAAN(deg)": 164.9828805874434,
        "Satellite Name": "Starlink Shell 1 745",
        "Satellite Number": 745,
        "Semi-Major Axis(m)": 6931778.249405717,
        "Time(s)": 330
    },
    {
        "Altitude(m)": 559570.0452904642,
        "Argument of Periapsis(deg)": 0.011851668303382053,
        "Eccentricity": 0.0,
        "Inclination(deg)": 53.0,
        "Latitude(deg)": -22.028978346545042,
        "Longitude(deg)": 45.94074947109261,
        "Mean Anomaly(deg)": -27.778639079071606,
        "RAAN(deg)": 164.98236181736593,
        "Satellite Name": "Starlink Shell 1 745",
        "Satellite Number": 745,
        "Semi-Major Axis(m)": 6931778.249405717,
        "Time(s)": 340
    },
    {
        "Altitude(m)": 559407.5330171944,
        "Argument of Periapsis(deg)": 0.012200246782893292,
        "Eccentricity": 0.0,
        "Inclination(deg)": 53.0,
        "Latitude(deg)": -21.54941463913258,
        "Longitude(deg)": 46.335357537406225,
        "Mean Anomaly(deg)": -27.151807875514933,
        "RAAN(deg)": 164.98184304728844,
        "Satellite Name": "Starlink Shell 1 745",
        "Satellite Number": 745,
        "Semi-Major Axis(m)": 6931778.249405717,
        "Time(s)": 350
    },
    {
        "Altitude(m)": 559246.3066527159,
        "Argument of Periapsis(deg)": 0.012548825262404526,
        "Eccentricity": 0.0,
        "Inclination(deg)": 53.0,
        "Latitude(deg)": -21.06867694793239,
        "Longitude(deg)": 46.72712240712771,
        "Mean Anomaly(deg)": -26.524976671958193,
        "RAAN(deg)": 164.98132427721097,
        "Satellite Name": "Starlink Shell 1 745",
        "Satellite Number": 745,
        "Semi-Major Axis(m)": 6931778.249405717,
        "Time(s)": 360
    },
    {
        "Altitude(m)": 559086.4228059328,
        "Argument of Periapsis(deg)": 0.012897403741915765,
        "Eccentricity": 0.0,
        "Inclination(deg)": 53.0,
        "Latitude(deg)": -20.586800358809153,
        "Longitude(deg)": 47.11612513256942,
        "Mean Anomaly(deg)": -25.89814546840152,
        "RAAN(deg)": 164.9808055071335,
        "Satellite Name": "Starlink Shell 1 745",
        "Satellite Number": 745,
        "Semi-Major Axis(m)": 6931778.249405717,
        "Time(s)": 370
    }
]